{"type": "FeatureCollection", "features": [{"type": "Feature", "properties": {"norad_id": 28054, "name": "DMSP 5D-3 F16 (USA 172)", "group": "weather", "lat": 61.184481762802385, "lon": 0.09568153510445018, "alt_km": 841.8102279026652, "timestamp": "2025-12-25T07:00:33.685819+00:00", "meta": {"OBJECT_NAME": "DMSP 5D-3 F16 (USA 172)", "OBJECT_ID": "2003-048A", "EPOCH": "2025-12-24T22:31:16.915872", "MEAN_MOTION": 14.14428451, "ECCENTRICITY": 0.00062475, "INCLINATION": 99.0038, "RA_OF_ASC_NODE": 16.4908, "ARG_OF_PERICENTER": 281.7094, "MEAN_ANOMALY": 140.9612, "EPHEMERIS_TYPE": 0, "CLASSIFICATION_TYPE": "U", "NORAD_CAT_ID": 28054, "ELEMENT_SET_NO": 999, "REV_AT_EPOCH": 14485, "BSTAR": 8.3066216e-05, "MEAN_MOTION_DOT": 1.14e-06, "MEAN_MOTION_DDOT": 0}, "tle": {"line1": "1 28054U 03048A   25358.93839023  .00000114  00000+0  83066-4 0  9996", "line2": "2 28054  99.0038  16.4908 0006247 281.7094 140.9612 14.14428451144857"}}, "geometry": {"type": "Point", "coordinates": [0.09568153510445018, 61.184481762802385]}}, {"type": "Feature", "properties": {"norad_id": 28912, "name": "METEOSAT-9 (MSG-2)", "group": "weather", "lat": -1.148552955665594, "lon": -116.90130072859664, "alt_km": 35810.086670094555, "timestamp": "2025-12-25T07:00:33.685873+00:00", "meta": {"OBJECT_NAME": "METEOSAT-9 (MSG-2)", "OBJECT_ID": "2005-049B", "EPOCH": "2025-12-24T18:27:10.310976", "MEAN_MOTION": 1.00268275, "ECCENTRICITY": 0.00719695, "INCLINATION": 8.9553, "RA_OF_ASC_NODE": 55.846, "ARG_OF_PERICENTER": 282.2974, "MEAN_ANOMALY": 77.0088, "EPHEMERIS_TYPE": 0, "CLASSIFICATION_TYPE": "U", "NORAD_CAT_ID": 28912, "ELEMENT_SET_NO": 999, "REV_AT_EPOCH": 524, "BSTAR": 0, "MEAN_MOTION_DOT": 1.45e-06, "MEAN_MOTION_DDOT": 0}, "tle": {"line1": "1 28912U 05049B   25358.76886934  .00000145  00000+0  00000+0 0  9992", "line2": "2 28912   8.9553  55.8460 0071969 282.2974  77.0088  1.00268275  5240"}}, "geometry": {"type": "Point", "coordinates": [-116.90130072859664, -1.148552955665594]}}, {"type": "Feature", "properties": {"norad_id": 29522, "name": "DMSP 5D-3 F17 (USA 191)", "group": "weather", "lat": 24.546226441464814, "lon": 0.39147278157571963, "alt_km": 848.681281285787, "timestamp": "2025-12-25T07:00:33.685891+00:00", "meta": {"OBJECT_NAME": "DMSP 5D-3 F17 (USA 191)", "OBJECT_ID": "2006-050A", "EPOCH": "2025-12-24T22:24:22.491360", "MEAN_MOTION": 14.14924618, "ECCENTRICITY": 0.00099288, "INCLINATION": 98.7392, "RA_OF_ASC_NODE": 4.0688, "ARG_OF_PERICENTER": 188.5346, "MEAN_ANOMALY": 171.566, "EPHEMERIS_TYPE": 0, "CLASSIFICATION_TYPE": "U", "NORAD_CAT_ID": 29522, "ELEMENT_SET_NO": 999, "REV_AT_EPOCH": 98777, "BSTAR": 9.8905538e-05, "MEAN_MOTION_DOT": 1.48e-06, "MEAN_MOTION_DDOT": 0}, "tle": {"line1": "1 29522U 06050A   25358.93359365  .00000148  00000+0  98906-4 0  9995", "line2": "2 29522  98.7392   4.0688 0009928 188.5346 171.5660 14.14924618987773"}}, "geometry": {"type": "Point", "coordinates": [0.39147278157571963, 24.546226441464814]}}, {"type": "Feature", "properties": {"norad_id": 32958, "name": "FENGYUN 3A", "group": "weather", "lat": -52.871014812546875, "lon": -49.815701766815174, "alt_km": 829.5089966069663, "timestamp": "2025-12-25T07:00:33.685904+00:00", "meta": {"OBJECT_NAME": "FENGYUN 3A", "OBJECT_ID": "2008-026A", "EPOCH": "2025-12-24T19:25:13.141632", "MEAN_MOTION": 14.19518258, "ECCENTRICITY": 0.00076114, "INCLINATION": 98.6714, "RA_OF_ASC_NODE": 298.0827, "ARG_OF_PERICENTER": 271.2931, "MEAN_ANOMALY": 88.7373, "EPHEMERIS_TYPE": 0, "CLASSIFICATION_TYPE": "U", "NORAD_CAT_ID": 32958, "ELEMENT_SET_NO": 999, "REV_AT_EPOCH": 91066, "BSTAR": 7.9047687e-05, "MEAN_MOTION_DOT": 1.23e-06, "MEAN_MOTION_DDOT": 0}, "tle": {"line1": "1 32958U 08026A   25358.80917988  .00000123  00000+0  79048-4 0  9993", "line2": "2 32958  98.6714 298.0827 0007611 271.2931  88.7373 14.19518258910662"}}, "geometry": {"type": "Point", "coordinates": [-49.815701766815174, -52.871014812546875]}}, {"type": "Feature", "properties": {"norad_id": 35491, "name": "GOES 14", "group": "weather", "lat": -0.06168714305323731, "lon": 81.52725192687953, "alt_km": 35837.82076887912, "timestamp": "2025-12-25T07:00:33.685918+00:00", "meta": {"OBJECT_NAME": "GOES 14", "OBJECT_ID": "2009-033A", "EPOCH": "2025-12-24T13:17:44.547648", "MEAN_MOTION": 1.00097021, "ECCENTRICITY": 6.569e-05, "INCLINATION": 1.2326, "RA_OF_ASC_NODE": 85.2846, "ARG_OF_PERICENTER": 190.4706, "MEAN_ANOMALY": 259.8072, "EPHEMERIS_TYPE": 0, "CLASSIFICATION_TYPE": "U", "NORAD_CAT_ID": 35491, "ELEMENT_SET_NO": 999, "REV_AT_EPOCH": 484, "BSTAR": 0, "MEAN_MOTION_DOT": 3.4e-07, "MEAN_MOTION_DDOT": 0}, "tle": {"line1": "1 35491U 09033A   25358.55398782  .00000034  00000+0  00000+0 0  9992", "line2": "2 35491   1.2326  85.2846 0000656 190.4706 259.8072  1.00097021  4844"}}, "geometry": {"type": "Point", "coordinates": [81.52725192687953, -0.06168714305323731]}}, {"type": "Feature", "properties": {"norad_id": 35951, "name": "DMSP 5D-3 F18 (USA 210)", "group": "weather", "lat": -64.30437641138964, "lon": 136.65983299757224, "alt_km": 857.0587189128173, "timestamp": "2025-12-25T07:00:33.685931+00:00", "meta": {"OBJECT_NAME": "DMSP 5D-3 F18 (USA 210)", "OBJECT_ID": "2009-057A", "EPOCH": "2025-12-24T21:21:52.587936", "MEAN_MOTION": 14.14777156, "ECCENTRICITY": 0.00117086, "INCLINATION": 98.8849, "RA_OF_ASC_NODE": 335.231, "ARG_OF_PERICENTER": 30.6251, "MEAN_ANOMALY": 329.5603, "EPHEMERIS_TYPE": 0, "CLASSIFICATION_TYPE": "U", "NORAD_CAT_ID": 35951, "ELEMENT_SET_NO": 999, "REV_AT_EPOCH": 83494, "BSTAR": 0.0001688878, "MEAN_MOTION_DOT": 2.81e-06, "MEAN_MOTION_DDOT": 0}, "tle": {"line1": "1 35951U 09057A   25358.89019199  .00000281  00000+0  16889-3 0  9998", "line2": "2 35951  98.8849 335.2310 0011708  30.6251 329.5603 14.14777156834941"}}, "geometry": {"type": "Point", "coordinates": [136.65983299757224, -64.30437641138964]}}, {"type": "Feature", "properties": {"norad_id": 36411, "name": "EWS-G2 (GOES 15)", "group": "weather", "lat": 0.06228522065522834, "lon": -99.46376382457056, "alt_km": 35762.74071938782, "timestamp": "2025-12-25T07:00:33.685944+00:00", "meta": {"OBJECT_NAME": "EWS-G2 (GOES 15)", "OBJECT_ID": "2010-008A", "EPOCH": "2025-12-24T21:57:05.207904", "MEAN_MOTION": 1.0027102, "ECCENTRICITY": 0.00055752, "INCLINATION": 0.8418, "RA_OF_ASC_NODE": 86.0746, "ARG_OF_PERICENTER": 179.0155, "MEAN_ANOMALY": 219.2166, "EPHEMERIS_TYPE": 0, "CLASSIFICATION_TYPE": "U", "NORAD_CAT_ID": 36411, "ELEMENT_SET_NO": 999, "REV_AT_EPOCH": 5789, "BSTAR": 0, "MEAN_MOTION_DOT": 5.9e-07, "MEAN_MOTION_DDOT": 0}, "tle": {"line1": "1 36411U 10008A   25358.91464361  .00000059  00000+0  00000+0 0  9993", "line2": "2 36411   0.8418  86.0746 0005575 179.0155 219.2166  1.00271020 57898"}}, "geometry": {"type": "Point", "coordinates": [-99.46376382457056, 0.06228522065522834]}}, {"type": "Feature", "properties": {"norad_id": 36744, "name": "COMS 1", "group": "weather", "lat": -4.108219785342674, "lon": -32.685014704058005, "alt_km": 35784.170995432025, "timestamp": "2025-12-25T07:00:33.685958+00:00", "meta": {"OBJECT_NAME": "COMS 1", "OBJECT_ID": "2010-032A", "EPOCH": "2025-12-24T19:59:21.646752", "MEAN_MOTION": 1.00270272, "ECCENTRICITY": 8.535e-05, "INCLINATION": 4.3674, "RA_OF_ASC_NODE": 77.8619, "ARG_OF_PERICENTER": 214.2351, "MEAN_ANOMALY": 229.5193, "EPHEMERIS_TYPE": 0, "CLASSIFICATION_TYPE": "U", "NORAD_CAT_ID": 36744, "ELEMENT_SET_NO": 999, "REV_AT_EPOCH": 4934, "BSTAR": 0, "MEAN_MOTION_DOT": -3.25e-06, "MEAN_MOTION_DDOT": 0}, "tle": {"line1": "1 36744U 10032A   25358.83288943 -.00000325  00000+0  00000+0 0  9997", "line2": "2 36744   4.3674  77.8619 0000853 214.2351 229.5193  1.00270272 49344"}}, "geometry": {"type": "Point", "coordinates": [-32.685014704058005, -4.108219785342674]}}, {"type": "Feature", "properties": {"norad_id": 37214, "name": "FENGYUN 3B", "group": "weather", "lat": -30.756003814146307, "lon": -146.04899840729092, "alt_km": 854.3820472349962, "timestamp": "2025-12-25T07:00:33.685971+00:00", "meta": {"OBJECT_NAME": "FENGYUN 3B", "OBJECT_ID": "2010-059A", "EPOCH": "2025-12-24T23:46:26.157792", "MEAN_MOTION": 14.14792939, "ECCENTRICITY": 0.00215005, "INCLINATION": 98.9886, "RA_OF_ASC_NODE": 39.0522, "ARG_OF_PERICENTER": 322.5397, "MEAN_ANOMALY": 154.1265, "EPHEMERIS_TYPE": 0, "CLASSIFICATION_TYPE": "U", "NORAD_CAT_ID": 37214, "ELEMENT_SET_NO": 999, "REV_AT_EPOCH": 78279, "BSTAR": 0.00011613693, "MEAN_MOTION_DOT": 1.79e-06, "MEAN_MOTION_DDOT": 0}, "tle": {"line1": "1 37214U 10059A   25358.99058053  .00000179  00000+0  11614-3 0  9996", "line2": "2 37214  98.9886  39.0522 0021500 322.5397 154.1265 14.14792939782793"}}, "geometry": {"type": "Point", "coordinates": [-146.04899840729092, -30.756003814146307]}}, {"type": "Feature", "properties": {"norad_id": 37849, "name": "SUOMI NPP", "group": "weather", "lat": -79.95403559741337, "lon": 55.79788834563478, "alt_km": 836.0714778479187, "timestamp": "2025-12-25T07:00:33.685983+00:00", "meta": {"OBJECT_NAME": "SUOMI NPP", "OBJECT_ID": "2011-061A", "EPOCH": "2025-12-22T15:10:21.732672", "MEAN_MOTION": 14.19516903, "ECCENTRICITY": 0.00024883, "INCLINATION": 98.7787, "RA_OF_ASC_NODE": 293.8852, "ARG_OF_PERICENTER": 103.0781, "MEAN_ANOMALY": 257.0673, "EPHEMERIS_TYPE": 0, "CLASSIFICATION_TYPE": "U", "NORAD_CAT_ID": 37849, "ELEMENT_SET_NO": 999, "REV_AT_EPOCH": 73339, "BSTAR": 6.3406935e-05, "MEAN_MOTION_DOT": 8.9e-07, "MEAN_MOTION_DDOT": 0}, "tle": {"line1": "1 37849U 11061A   25356.63219598  .00000089  00000+0  63407-4 0  9994", "line2": "2 37849  98.7787 293.8852 0002488 103.0781 257.0673 14.19516903733392"}}, "geometry": {"type": "Point", "coordinates": [55.79788834563478, -79.95403559741337]}}]}